[{"OBJECT_NAME":"STARLINK-5126","OBJECT_ID":"2022-125BA","EPOCH":"2026-03-09T16:23:25.508832","MEAN_MOTION":15.08836882,"ECCENTRICITY":0.00012159,"INCLINATION":53.2175,"RA_OF_ASC_NODE":204.0275,"ARG_OF_PERICENTER":88.3296,"MEAN_ANOMALY":271.7836,"EPHEMERIS_TYPE":0,"CLASSIFICATION_TYPE":"U","NORAD_CAT_ID":54012,"ELEMENT_SET_NO":999,"REV_AT_EPOCH":18960,"BSTAR":2.8520428e-5,"MEAN_MOTION_DOT":1.66e-6,"MEAN_MOTION_DDOT":0},{"OBJECT_NAME":"OBJECT R","OBJECT_ID":"2021-022R","EPOCH":"2026-03-09T22:54:37.456416","MEAN_MOTION":15.08912229,"ECCENTRICITY":0.00182027,"INCLINATION":97.3728,"RA_OF_ASC_NODE":308.5333,"ARG_OF_PERICENTER":149.1845,"MEAN_ANOMALY":211.0456,"EPHEMERIS_TYPE":0,"CLASSIFICATION_TYPE":"U","NORAD_CAT_ID":47947,"ELEMENT_SET_NO":999,"REV_AT_EPOCH":27304,"BSTAR":2.1057411e-5,"MEAN_MOTION_DOT":2.72e-6,"MEAN_MOTION_DDOT":0}]
